{
  "norad_id": 68892,
  "name": "KUIPER-00524",
  "history": [
    {
      "epoch": "2026-05-02T10:00:03.000096Z",
      "apogee_km": 454.1881975272454,
      "perigee_km": 450.31400139722973,
      "latitude_deg": 17.257972066506067,
      "longitude_deg": -100.69822362044964,
      "height_km": 451.3839940596367,
      "semi_major_axis_km": 6830.388099462238,
      "eccentricity": 0.0002836,
      "inclination_deg": 51.8807,
      "raan_deg": 103.6779,
      "arg_perigee_deg": 99.4212,
      "mean_anomaly_deg": 58.4352,
      "mean_motion_rev_day": 15.3792335
    }
  ]
}