{"fetched_at":"2026-05-03T06:27:58Z","count":17151,"tles":[{"name":"KUIPER-00524","line1":"1 68892U 26095AE  26122.41670139  .00070255  00000+0  18479-2 0  9998","line2":"2 68892  51.8807 103.6779 0002836  99.4212  58.4352 15.37923350  1740","category":"Other"}]}